STARLINK-1670
1 16370C 20062AY  21326.15363313 -.00013243  00000-0 -88736-3 0  3263
2 16370  53.0530 198.0618 0001829  70.5635  75.4017 15.06408549    14
